[Satellite]
VERSION=1.1
NAME=N-SAT-110 (SUPERBIRD-D)
NICKNAME=N-SAT-110 (SUPERBIRD-D)
TLE1=1 26559U 00060A   15055.01562786 -.00000377  00000-0  10000-3 0  9996
TLE2=2 26559   0.0037 109.9881 0000727  95.0050  64.2436  1.00270686 52709
